SKYSAT-A                
1 39418U 13066C   26066.12125917  .00003401  00000+0  19903-3 0  9991
2 39418  97.3955 118.7442 0020316 310.1034  49.8416 15.12328643673054
SKYSAT-B                
1 40072U 14037D   26065.83746155  .00002430  00000+0  27336-3 0  9998
2 40072  98.3725  19.0618 0004259 245.2910 114.7861 14.87713289630745
SKYSAT-C1               
1 41601U 16040C   26066.09242030  .00010720  00000+0  32337-3 0  9993
2 41601  96.9702 103.4028 0003737  58.7584 301.4025 15.34444065542206
SKYSAT-C4               
1 41771U 16058B   26066.12999646  .00018709  00000+0  39466-3 0  9991
2 41771  96.9290  92.3500 0000812 103.5796 256.5544 15.45260395529690
SKYSAT-C5               
1 41772U 16058C   26066.08630618  .00010047  00000+0  30540-3 0  9999
2 41772  97.0615 111.2633 0001794  83.9692 276.1757 15.34226323528096
SKYSAT-C2               
1 41773U 16058D   26066.04363438  .00013727  00000+0  35012-3 0  9996
2 41773  97.0281  92.0991 0005171  74.1950 285.9866 15.39611123529328
SKYSAT-C3               
1 41774U 16058E   26066.03745710  .00023611  00000+0  45006-3 0  9990
2 41774  96.9175 101.0213 0001642 106.5729 253.5703 15.48169891530288
SKYSAT-C11              
1 42987U 17068A   26066.13822015  .00039612  00000+0  65322-3 0  9995
2 42987  97.4200 211.0384 0000731  83.6725 276.4610 15.52195635467381
SKYSAT-C10              
1 42988U 17068B   26066.18555565  .00013966  00000+0  44579-3 0  9999
2 42988  97.4337 202.2852 0001049  89.8809 270.2553 15.32602698466724
SKYSAT-C9               
1 42989U 17068C   26066.17705460  .00018672  00000+0  48778-3 0  9994
2 42989  97.4263 202.2923 0009753 141.2341 218.9605 15.38785851467059
SKYSAT-C8               
1 42990U 17068D   26065.91255296  .00006398  00000+0  19285-3 0  9997
2 42990  97.4353 201.4382 0001567  87.7513 272.3910 15.34670377466617
SKYSAT-C7               
1 42991U 17068E   26066.09816079  .00014723  00000+0  44038-3 0  9995
2 42991  97.4366 202.6098 0007377 111.5353 248.6677 15.34634234466700
SKYSAT-C6               
1 42992U 17068F   26065.89484295  .00012021  00000+0  38637-3 0  9991
2 42992  97.4398 202.6981 0003549 134.9748 225.1782 15.32413195466640
SKYSAT-C12              
1 43797U 18099AR  26066.03931104  .00019497  00000+0  40792-3 0  9992
2 43797  96.9382  93.5662 0005211 145.2286 214.9306 15.45481263406067
SKYSAT-C13              
1 43802U 18099AW  26066.06248012  .00090296  00000+0  57496-3 0  9996
2 43802  96.9409 113.6922 0003783 208.4092 151.6969 15.76160132406757
FLOCK 4Q-16             
1 58271U 23174R   26066.16439256  .00028991  00000+0  62289-3 0  9994
2 58271  97.3863 152.2510 0007938 166.7513 193.3946 15.44609004129801
FLOCK 4Q-11             
1 58273U 23174T   26066.17229869  .00030130  00000+0  63902-3 0  9995
2 58273  97.3903 152.7373 0007655 164.3719 195.7768 15.44986267129816
