[{"OBJECT_NAME":"SKYSAT-A","OBJECT_ID":"2013-066C","EPOCH":"2026-03-07T02:54:36.792288","MEAN_MOTION":15.12328643,"ECCENTRICITY":0.0020316,"INCLINATION":97.3955,"RA_OF_ASC_NODE":118.7442,"ARG_OF_PERICENTER":310.1034,"MEAN_ANOMALY":49.8416,"EPHEMERIS_TYPE":0,"CLASSIFICATION_TYPE":"U","NORAD_CAT_ID":39418,"ELEMENT_SET_NO":999,"REV_AT_EPOCH":67305,"BSTAR":0.00019903,"MEAN_MOTION_DOT":3.401e-5,"MEAN_MOTION_DDOT":0},{"OBJECT_NAME":"SKYSAT-B","OBJECT_ID":"2014-037D","EPOCH":"2026-03-06T20:05:56.677920","MEAN_MOTION":14.87713289,"ECCENTRICITY":0.0004259,"INCLINATION":98.3725,"RA_OF_ASC_NODE":19.0618,"ARG_OF_PERICENTER":245.291,"MEAN_ANOMALY":114.7861,"EPHEMERIS_TYPE":0,"CLASSIFICATION_TYPE":"U","NORAD_CAT_ID":40072,"ELEMENT_SET_NO":999,"REV_AT_EPOCH":63074,"BSTAR":0.00027336,"MEAN_MOTION_DOT":2.43e-5,"MEAN_MOTION_DDOT":0},{"OBJECT_NAME":"SKYSAT-C1","OBJECT_ID":"2016-040C","EPOCH":"2026-03-07T02:13:05.113920","MEAN_MOTION":15.34444065,"ECCENTRICITY":0.0003737,"INCLINATION":96.9702,"RA_OF_ASC_NODE":103.4028,"ARG_OF_PERICENTER":58.7584,"MEAN_ANOMALY":301.4025,"EPHEMERIS_TYPE":0,"CLASSIFICATION_TYPE":"U","NORAD_CAT_ID":41601,"ELEMENT_SET_NO":999,"REV_AT_EPOCH":54220,"BSTAR":0.00032337,"MEAN_MOTION_DOT":0.0001072,"MEAN_MOTION_DDOT":0},{"OBJECT_NAME":"SKYSAT-C4","OBJECT_ID":"2016-058B","EPOCH":"2026-03-07T03:07:11.694144","MEAN_MOTION":15.45260395,"ECCENTRICITY":8.12e-5,"INCLINATION":96.929,"RA_OF_ASC_NODE":92.35,"ARG_OF_PERICENTER":103.5796,"MEAN_ANOMALY":256.5544,"EPHEMERIS_TYPE":0,"CLASSIFICATION_TYPE":"U","NORAD_CAT_ID":41771,"ELEMENT_SET_NO":999,"REV_AT_EPOCH":52969,"BSTAR":0.00039466,"MEAN_MOTION_DOT":0.00018709,"MEAN_MOTION_DDOT":0},{"OBJECT_NAME":"SKYSAT-C5","OBJECT_ID":"2016-058C","EPOCH":"2026-03-07T02:04:16.853952","MEAN_MOTION":15.34226323,"ECCENTRICITY":0.0001794,"INCLINATION":97.0615,"RA_OF_ASC_NODE":111.2633,"ARG_OF_PERICENTER":83.9692,"MEAN_ANOMALY":276.1757,"EPHEMERIS_TYPE":0,"CLASSIFICATION_TYPE":"U","NORAD_CAT_ID":41772,"ELEMENT_SET_NO":999,"REV_AT_EPOCH":52809,"BSTAR":0.0003054,"MEAN_MOTION_DOT":0.00010047,"MEAN_MOTION_DDOT":0},{"OBJECT_NAME":"SKYSAT-C2","OBJECT_ID":"2016-058D","EPOCH":"2026-03-07T01:02:50.010432","MEAN_MOTION":15.39611123,"ECCENTRICITY":0.0005171,"INCLINATION":97.0281,"RA_OF_ASC_NODE":92.0991,"ARG_OF_PERICENTER":74.195,"MEAN_ANOMALY":285.9866,"EPHEMERIS_TYPE":0,"CLASSIFICATION_TYPE":"U","NORAD_CAT_ID":41773,"ELEMENT_SET_NO":999,"REV_AT_EPOCH":52932,"BSTAR":0.00035012,"MEAN_MOTION_DOT":0.00013727,"MEAN_MOTION_DDOT":0},{"OBJECT_NAME":"SKYSAT-C3","OBJECT_ID":"2016-058E","EPOCH":"2026-03-07T00:53:56.293440","MEAN_MOTION":15.48169891,"ECCENTRICITY":0.0001642,"INCLINATION":96.9175,"RA_OF_ASC_NODE":101.0213,"ARG_OF_PERICENTER":106.5729,"MEAN_ANOMALY":253.5703,"EPHEMERIS_TYPE":0,"CLASSIFICATION_TYPE":"U","NORAD_CAT_ID":41774,"ELEMENT_SET_NO":999,"REV_AT_EPOCH":53028,"BSTAR":0.00045006,"MEAN_MOTION_DOT":0.00023611,"MEAN_MOTION_DDOT":0},{"OBJECT_NAME":"SKYSAT-C11","OBJECT_ID":"2017-068A","EPOCH":"2026-03-07T03:19:02.220960","MEAN_MOTION":15.52195635,"ECCENTRICITY":7.31e-5,"INCLINATION":97.42,"RA_OF_ASC_NODE":211.0384,"ARG_OF_PERICENTER":83.6725,"MEAN_ANOMALY":276.461,"EPHEMERIS_TYPE":0,"CLASSIFICATION_TYPE":"U","NORAD_CAT_ID":42987,"ELEMENT_SET_NO":999,"REV_AT_EPOCH":46738,"BSTAR":0.00065322,"MEAN_MOTION_DOT":0.00039612,"MEAN_MOTION_DDOT":0},{"OBJECT_NAME":"SKYSAT-C10","OBJECT_ID":"2017-068B","EPOCH":"2026-03-07T04:27:12.008160","MEAN_MOTION":15.32602698,"ECCENTRICITY":0.0001049,"INCLINATION":97.4337,"RA_OF_ASC_NODE":202.2852,"ARG_OF_PERICENTER":89.8809,"MEAN_ANOMALY":270.2553,"EPHEMERIS_TYPE":0,"CLASSIFICATION_TYPE":"U","NORAD_CAT_ID":42988,"ELEMENT_SET_NO":999,"REV_AT_EPOCH":46672,"BSTAR":0.00044579,"MEAN_MOTION_DOT":0.00013966,"MEAN_MOTION_DDOT":0},{"OBJECT_NAME":"SKYSAT-C9","OBJECT_ID":"2017-068C","EPOCH":"2026-03-07T04:14:57.517440","MEAN_MOTION":15.38785851,"ECCENTRICITY":0.0009753,"INCLINATION":97.4263,"RA_OF_ASC_NODE":202.2923,"ARG_OF_PERICENTER":141.2341,"MEAN_ANOMALY":218.9605,"EPHEMERIS_TYPE":0,"CLASSIFICATION_TYPE":"U","NORAD_CAT_ID":42989,"ELEMENT_SET_NO":999,"REV_AT_EPOCH":46705,"BSTAR":0.00048778,"MEAN_MOTION_DOT":0.00018672,"MEAN_MOTION_DDOT":0},{"OBJECT_NAME":"SKYSAT-C8","OBJECT_ID":"2017-068D","EPOCH":"2026-03-06T21:54:04.575744","MEAN_MOTION":15.34670377,"ECCENTRICITY":0.0001567,"INCLINATION":97.4353,"RA_OF_ASC_NODE":201.4382,"ARG_OF_PERICENTER":87.7513,"MEAN_ANOMALY":272.391,"EPHEMERIS_TYPE":0,"CLASSIFICATION_TYPE":"U","NORAD_CAT_ID":42990,"ELEMENT_SET_NO":999,"REV_AT_EPOCH":46661,"BSTAR":0.00019285,"MEAN_MOTION_DOT":6.398e-5,"MEAN_MOTION_DDOT":0},{"OBJECT_NAME":"SKYSAT-C7","OBJECT_ID":"2017-068E","EPOCH":"2026-03-07T02:21:21.092256","MEAN_MOTION":15.34634234,"ECCENTRICITY":0.0007377,"INCLINATION":97.4366,"RA_OF_ASC_NODE":202.6098,"ARG_OF_PERICENTER":111.5353,"MEAN_ANOMALY":248.6677,"EPHEMERIS_TYPE":0,"CLASSIFICATION_TYPE":"U","NORAD_CAT_ID":42991,"ELEMENT_SET_NO":999,"REV_AT_EPOCH":46670,"BSTAR":0.00044038,"MEAN_MOTION_DOT":0.00014723,"MEAN_MOTION_DDOT":0},{"OBJECT_NAME":"SKYSAT-C6","OBJECT_ID":"2017-068F","EPOCH":"2026-03-06T21:28:34.430880","MEAN_MOTION":15.32413195,"ECCENTRICITY":0.0003549,"INCLINATION":97.4398,"RA_OF_ASC_NODE":202.6981,"ARG_OF_PERICENTER":134.9748,"MEAN_ANOMALY":225.1782,"EPHEMERIS_TYPE":0,"CLASSIFICATION_TYPE":"U","NORAD_CAT_ID":42992,"ELEMENT_SET_NO":999,"REV_AT_EPOCH":46664,"BSTAR":0.00038637,"MEAN_MOTION_DOT":0.00012021,"MEAN_MOTION_DDOT":0},{"OBJECT_NAME":"SKYSAT-C12","OBJECT_ID":"2018-099AR","EPOCH":"2026-03-07T00:56:36.473856","MEAN_MOTION":15.45481263,"ECCENTRICITY":0.0005211,"INCLINATION":96.9382,"RA_OF_ASC_NODE":93.5662,"ARG_OF_PERICENTER":145.2286,"MEAN_ANOMALY":214.9306,"EPHEMERIS_TYPE":0,"CLASSIFICATION_TYPE":"U","NORAD_CAT_ID":43797,"ELEMENT_SET_NO":999,"REV_AT_EPOCH":40606,"BSTAR":0.00040792,"MEAN_MOTION_DOT":0.00019497,"MEAN_MOTION_DDOT":0},{"OBJECT_NAME":"SKYSAT-C13","OBJECT_ID":"2018-099AW","EPOCH":"2026-03-07T01:29:58.282368","MEAN_MOTION":15.76160132,"ECCENTRICITY":0.0003783,"INCLINATION":96.9409,"RA_OF_ASC_NODE":113.6922,"ARG_OF_PERICENTER":208.4092,"MEAN_ANOMALY":151.6969,"EPHEMERIS_TYPE":0,"CLASSIFICATION_TYPE":"U","NORAD_CAT_ID":43802,"ELEMENT_SET_NO":999,"REV_AT_EPOCH":40675,"BSTAR":0.00057496,"MEAN_MOTION_DOT":0.00090296,"MEAN_MOTION_DDOT":0},{"OBJECT_NAME":"FLOCK 4Q-16","OBJECT_ID":"2023-174R","EPOCH":"2026-03-07T03:56:43.517184","MEAN_MOTION":15.44609004,"ECCENTRICITY":0.0007938,"INCLINATION":97.3863,"RA_OF_ASC_NODE":152.251,"ARG_OF_PERICENTER":166.7513,"MEAN_ANOMALY":193.3946,"EPHEMERIS_TYPE":0,"CLASSIFICATION_TYPE":"U","NORAD_CAT_ID":58271,"ELEMENT_SET_NO":999,"REV_AT_EPOCH":12980,"BSTAR":0.00062289,"MEAN_MOTION_DOT":0.00028991,"MEAN_MOTION_DDOT":0},{"OBJECT_NAME":"FLOCK 4Q-11","OBJECT_ID":"2023-174T","EPOCH":"2026-03-07T04:08:06.606816","MEAN_MOTION":15.44986267,"ECCENTRICITY":0.0007655,"INCLINATION":97.3903,"RA_OF_ASC_NODE":152.7373,"ARG_OF_PERICENTER":164.3719,"MEAN_ANOMALY":195.7768,"EPHEMERIS_TYPE":0,"CLASSIFICATION_TYPE":"U","NORAD_CAT_ID":58273,"ELEMENT_SET_NO":999,"REV_AT_EPOCH":12981,"BSTAR":0.00063902,"MEAN_MOTION_DOT":0.0003013,"MEAN_MOTION_DDOT":0}]
